DMSP 5D-3 F16 (USA 172) 
1 28054U 03048A   25246.25446638  .00000272  00000+0  16577-3 0  9990
2 28054  99.0133 262.8622 0006271 234.6725 218.0362 14.14372547128921
METEOSAT-9 (MSG-2)      
1 28912U 05049B   25246.10407368  .00000127  00000+0  00000+0 0  9996
2 28912   8.7016  56.9099 0001013 193.0128 175.7757  1.00269533  4139
DMSP 5D-3 F17 (USA 191) 
1 29522U 06050A   25246.28228795  .00000363  00000+0  21024-3 0  9996
2 29522  98.7417 253.7370 0010622 149.5225 210.6568 14.14855586971848
FENGYUN 3A              
1 32958U 08026A   25246.09976179  .00000219  00000+0  12448-3 0  9993
2 32958  98.6516 187.8399 0007745 231.3112 128.7372 14.19467790894677
GOES 14                 
1 35491U 09033A   25246.21636332 -.00000068  00000+0  00000+0 0  9995
2 35491   0.9320  86.8379 0003590  92.4143 133.0110  1.00269815  3711
DMSP 5D-3 F18 (USA 210) 
1 35951U 09057A   25246.22651543  .00000525  00000+0  29593-3 0  9993
2 35951  98.8683 223.1975 0011027 353.3523   6.7502 14.14686477819018
EWS-G2 (GOES 15)        
1 36411U 10008A   25246.17860734  .00000038  00000+0  00000+0 0  9998
2 36411   0.5433  85.4283 0004563 128.9265 253.9930  1.00267721 56764
COMS 1                  
1 36744U 10032A   25245.97768317 -.00000344  00000+0  00000+0 0  9996
2 36744   4.0846  79.0238 0000881  83.2898 300.1328  1.00271227 48216
FENGYUN 3B              
1 37214U 10059A   25246.26265345  .00000187  00000+0  12073-3 0  9995
2 37214  99.0067 285.4473 0021074 280.0962 212.3235 14.14750719766853
SUOMI NPP               
1 37849U 11061A   25246.25141743  .00000197  00000+0  11460-3 0  9997
2 37849  98.7603 184.5836 0002471  80.2850 279.8605 14.19513208717734
METEOSAT-10 (MSG-3)     
1 38552U 12035B   25246.23785675 -.00000005  00000+0  00000+0 0  9990
2 38552   3.9858  61.9322 0000349  34.5683 331.8357  1.00272588 47987
METOP-B                 
1 38771U 12049A   25246.27249730  .00000254  00000+0  13593-3 0  9999
2 38771  98.5961 298.0406 0002272  90.1864 269.9574 14.21464468672508
INSAT-3D                
1 39216U 13038B   25245.97794317 -.00000339  00000+0  00000+0 0  9995
2 39216   1.1774  86.3998 0000980 108.3254 269.2046  1.00267718 44207
FENGYUN 3C              
1 39260U 13052A   25246.24096684  .00000231  00000+0  13852-3 0  9996
2 39260  98.4631 228.8839 0015639 126.6563 233.6053 14.15649615617969
METEOR-M 2              
1 40069U 14037A   25246.29422161  .00000343  00000+0  17637-3 0  9996
2 40069  98.4767 227.7883 0006413 140.5844 219.5802 14.21327072578566
HIMAWARI-8              
1 40267U 14060A   25246.19429407 -.00000275  00000+0  00000+0 0  9998
2 40267   0.0461 245.4464 0001171 274.8420  32.8747  1.00271752 39871
FENGYUN 2G              
1 40367U 14090A   25246.07108646 -.00000298  00000+0  00000+0 0  9993
2 40367   4.9068  76.3107 0004186 161.1767 229.9287  1.00262414 39125
METEOSAT-11 (MSG-4)     
1 40732U 15034A   25246.23959009  .00000062  00000+0  00000+0 0  9991
2 40732   2.4796  72.2638 0000480 111.8785 253.9637  1.00269590  4345
ELEKTRO-L 2             
1 41105U 15074A   25246.23491007 -.00000116  00000+0  00000+0 0  9990
2 41105   5.9648  74.0567 0001847 164.2437 174.4274  1.00272142 35625
INSAT-3DR               
1 41752U 16054A   25245.41017225 -.00000076  00000+0  00000+0 0  9997
2 41752   0.1164  92.2717 0011221 169.3206 301.8924  1.00272496 32930
HIMAWARI-9              
1 41836U 16064A   25246.19438074 -.00000274  00000+0  00000+0 0  9996
2 41836   0.0181 180.2060 0000927 345.0982  28.0265  1.00272664 32332
GOES 16                 
1 41866U 16071A   25246.21705666 -.00000091  00000+0  00000+0 0  9991
2 41866   0.0937  94.6821 0002014 100.4841 120.9006  1.00272775 32229
FENGYUN 4A              
1 41882U 16077A   25245.81470558 -.00000356  00000+0  00000+0 0  9993
2 41882   1.5850  83.3906 0006317 161.4915 154.3694  1.00271549 32047
CYGFM05                 
1 41884U 16078A   25246.26447565  .00029767  00000+0  65870-3 0  9994
2 41884  34.9612 340.9099 0008970 323.5905  36.4205 15.42774557484213
CYGFM04                 
1 41885U 16078B   25246.24285497  .00030921  00000+0  63656-3 0  9991
2 41885  34.9366 318.3127 0007768 348.5974  11.4569 15.44904665484367
CYGFM02                 
1 41886U 16078C   25246.26377187  .00032377  00000+0  64486-3 0  9991
2 41886  34.9449 317.7696 0009236 343.6336  16.4085 15.45846880484480
CYGFM01                 
1 41887U 16078D   25245.97012058  .00027675  00000+0  60418-3 0  9998
2 41887  34.9452 345.8658 0008641 309.7654  50.2305 15.43188557484108
CYGFM08                 
1 41888U 16078E   25246.29006068  .00030335  00000+0  63870-3 0  9991
2 41888  34.9472 327.8183 0010021 337.0319  22.9953 15.44227108484372
CYGFM07                 
1 41890U 16078G   25246.26552542  .00030743  00000+0  63410-3 0  9997
2 41890  34.9488 317.5207 0008042 355.1976   4.8667 15.44848224484385
CYGFM03                 
1 41891U 16078H   25246.28490218  .00030407  00000+0  63307-3 0  9993
2 41891  34.9443 319.1930 0007186 339.2931  20.7498 15.44582358484360
FENGYUN 3D              
1 43010U 17072A   25246.30605918  .00000237  00000+0  13384-3 0  9999
2 43010  98.9704 211.1973 0002203 121.5551 238.5840 14.19638575404285
NOAA 20 (JPSS-1)        
1 43013U 17073A   25246.26698534  .00000187  00000+0  10944-3 0  9997
2 43013  98.7431 183.7471 0001881  62.3949 297.7418 14.19557186403762
GOES 17                 
1 43226U 18022A   25246.22009000 -.00000182  00000+0  00000+0 0  9992
2 43226   0.1930  94.1973 0001942 139.2211  98.9095  1.00273221 27546
FENGYUN 2H              
1 43491U 18050A   25246.11074705 -.00000129  00000+0  00000+0 0  9990
2 43491   2.2854  82.5093 0002535 123.9111 255.2617  1.00270880 26567
METOP-C                 
1 43689U 18087A   25246.23689848  .00000272  00000+0  14456-3 0  9994
2 43689  98.7084 305.4633 0000027  95.5347 264.5833 14.21487661354063
GEO-KOMPSAT-2A          
1 43823U 18100A   25245.40674817 -.00000342  00000+0  00000+0 0  9993
2 43823   0.0244  43.4055 0002143  67.5710 145.5214  1.00271676 24748
METEOR-M2 2             
1 44387U 19038A   25246.27726858  .00000266  00000+0  13491-3 0  9995
2 44387  98.8835 224.8354 0002255 106.5036 253.6390 14.24231261320450
ARKTIKA-M 1             
1 47719U 21016A   25238.91246193 -.00000125  00000+0  00000+0 0  9990
2 47719  63.1580  98.4827 7146053 268.7969  16.2140  2.00605875 32882
FENGYUN 3E              
1 49008U 21062A   25246.25650384  .00000091  00000+0  63675-4 0  9994
2 49008  98.7459 247.9564 0001715 153.8022 206.3241 14.19860314215864
GOES 18                 
1 51850U 22021A   25246.13926050  .00000096  00000+0  00000+0 0  9994
2 51850   0.0184  51.0476 0000512 163.6348  41.0206  1.00274931  3717
NOAA 21 (JPSS-2)        
1 54234U 22150A   25246.23252899  .00000198  00000+0  11444-3 0  9991
2 54234  98.7295 183.8767 0000711 328.5228  31.5906 14.19555806145838
METEOSAT-12 (MTG-I1)    
1 54743U 22170C   25246.23768341 -.00000007  00000+0  00000+0 0  9994
2 54743   0.6809  30.9526 0001868 111.6150 285.2269  1.00273287 10107
TIANMU-1 03             
1 55973U 23039A   25246.29486256  .00024748  00000+0  68343-3 0  9998
2 55973  97.5078  46.4743 0004576  62.1931 297.9776 15.37046996136613
TIANMU-1 04             
1 55974U 23039B   25246.29368163  .00025275  00000+0  69192-3 0  9994
2 55974  97.5007  45.7125 0005305  57.2326 302.9429 15.37311317136610
TIANMU-1 05             
1 55975U 23039C   25246.26614017  .00025136  00000+0  69478-3 0  9997
2 55975  97.5055  46.1651 0004545  79.8472 280.3284 15.37015455136599
TIANMU-1 06             
1 55976U 23039D   25246.29997426  .00025253  00000+0  68974-3 0  9999
2 55976  97.5067  46.5865 0004889  75.0556 285.1230 15.37384294136613
METEOR-M2 3             
1 57166U 23091A   25246.28467764  .00000057  00000+0  43760-4 0  9998
2 57166  98.6537 301.4910 0002840 289.2717  70.8155 14.24008903113689
TIANMU-1 07             
1 57399U 23101A   25246.33633453  .00013960  00000+0  54363-3 0  9991
2 57399  97.3045 298.4525 0005837  81.2853 278.9047 15.26079761117839
TIANMU-1 08             
1 57400U 23101B   25246.30258758  .00014491  00000+0  56405-3 0  9991
2 57400  97.3032 298.2342 0007830  82.6888 277.5240 15.26075337117825
TIANMU-1 09             
1 57401U 23101C   25246.28906838  .00015246  00000+0  59394-3 0  9997
2 57401  97.2989 297.7926 0007045  82.7710 277.4329 15.26040719117824
TIANMU-1 10             
1 57402U 23101D   25246.25699152  .00014194  00000+0  55327-3 0  9996
2 57402  97.3069 298.5055 0008912  81.8941 278.3308 15.26025130117813
FENGYUN 3F              
1 57490U 23111A   25246.31430074  .00000182  00000+0  10627-3 0  9993
2 57490  98.7207 316.1671 0001138 115.4134 244.7160 14.19856678108151
ARKTIKA-M 2             
1 58584U 23198A   25240.65163403  .00000142  00000+0  00000+0 0  9999
2 58584  63.2316 186.4216 6865209 268.5517  18.6442  2.00592499 12458
TIANMU-1 11             
1 58645U 23205A   25246.33681322  .00012674  00000+0  54221-3 0  9993
2 58645  97.3711 267.7794 0007814 301.2054  58.8416 15.22929104 93802
TIANMU-1 12             
1 58646U 23205B   25246.29066485  .00012298  00000+0  52858-3 0  9992
2 58646  97.3698 267.5735 0005888 282.0564  78.0012 15.22788138 93784
TIANMU-1 13             
1 58647U 23205C   25246.32458763  .00012649  00000+0  54351-3 0  9991
2 58647  97.3728 267.7692 0006192 255.8011 104.2538 15.22790617 93787
TIANMU-1 14             
1 58648U 23205D   25246.30721766  .00012197  00000+0  52424-3 0  9993
2 58648  97.3657 267.1943 0006986 262.0262  98.0182 15.22783745 93780
TIANMU-1 19             
1 58660U 23208A   25246.25618759  .00017652  00000+0  70286-3 0  9998
2 58660  97.4324 357.7381 0004463 245.3718 114.7056 15.25295338 93499
TIANMU-1 20             
1 58661U 23208B   25246.25588084  .00017390  00000+0  66782-3 0  9991
2 58661  97.4262 358.0866 0006742 259.5452 100.5027 15.26495929 93554
TIANMU-1 21             
1 58662U 23208C   25246.27480951  .00019570  00000+0  70476-3 0  9995
2 58662  97.4307 359.5997 0006380 255.0012 105.0522 15.28595957 93630
TIANMU-1 22             
1 58663U 23208D   25246.24536132  .00016407  00000+0  65528-3 0  9994
2 58663  97.4320 357.8188 0002818 276.4663  83.6254 15.25214354 93505
TIANMU-1 15             
1 58700U 24004A   25246.30948949  .00013046  00000+0  56027-3 0  9991
2 58700  97.4678  68.2508 0005241 287.6780  72.3884 15.22808643 92059
TIANMU-1 16             
1 58701U 24004B   25246.29169986  .00012581  00000+0  53975-3 0  9998
2 58701  97.4614  67.7110 0005590 294.2388  65.8264 15.22851700 92059
TIANMU-1 17             
1 58702U 24004C   25246.27107098  .00013226  00000+0  56842-3 0  9996
2 58702  97.4648  68.0662 0004420 284.1441  75.9305 15.22783286 92042
TIANMU-1 18             
1 58703U 24004D   25246.32287418  .00012967  00000+0  55559-3 0  9993
2 58703  97.4667  68.2832 0004076 281.6472  78.4306 15.22893832 92057
INSAT-3DS               
1 58990U 24033A   25246.17178170 -.00000156  00000+0  00000+0 0  9995
2 58990   0.0657 275.2797 0001432 250.7767 320.4310  1.00271981 44194
METEOR-M2 4             
1 59051U 24039A   25246.32424617  .00000101  00000+0  65113-4 0  9997
2 59051  98.6576 204.8994 0005927 283.6968  76.3549 14.22378342 78481
GOES 19                 
1 60133U 24119A   25246.22286334 -.00000248  00000+0  00000+0 0  9992
2 60133   0.0337 335.1461 0000297 270.4559 102.0469  1.00272273  4089
